$$SOE
2460742.500000000, A.D. 2025-Mar-08 00:00:00.0000, 6.229302785641345E+08, 2.217568713420611E+09, 2.563135640406043E+09,
2460749.500000000, A.D. 2025-Mar-15 00:00:00.0000, 6.190954770060761E+08, 2.217465744421295E+09, 2.564794028210516E+09,
2460756.500000000, A.D. 2025-Mar-22 00:00:00.0000, 6.152599451501611E+08, 2.217360059862514E+09, 2.566449369164599E+09,
2460763.500000000, A.D. 2025-Mar-29 00:00:00.0000, 6.114236890629940E+08, 2.217251665418609E+09, 2.568101662688101E+09,
2460770.500000000, A.D. 2025-Apr-05 00:00:00.0000, 6.075867136104598E+08, 2.217140566130384E+09, 2.569750908244148E+09,
2460777.500000000, A.D. 2025-Apr-12 00:00:00.0000, 6.037490230598333E+08, 2.217026766444604E+09, 2.571397105294327E+09,
2460784.500000000, A.D. 2025-Apr-19 00:00:00.0000, 5.999106212633173E+08, 2.216910270360343E+09, 2.573040253301105E+09,
2460791.500000000, A.D. 2025-Apr-26 00:00:00.0000, 5.960715116946652E+08, 2.216791081479495E+09, 2.574680351735780E+09,
2460798.500000000, A.D. 2025-May-03 00:00:00.0000, 5.922316974525628E+08, 2.216669202980997E+09, 2.576317400082842E+09,
2460805.500000000, A.D. 2025-May-10 00:00:00.0000, 5.883911812593660E+08, 2.216544637527784E+09, 2.577951397838696E+09,
2460812.500000000, A.D. 2025-May-17 00:00:00.0000, 5.845499654919192E+08, 2.216417387065765E+09, 2.579582344497848E+09,
2460819.500000000, A.D. 2025-May-24 00:00:00.0000, 5.807080524183756E+08, 2.216287452460642E+09, 2.581210239506090E+09,
2460826.500000000, A.D. 2025-May-31 00:00:00.0000, 5.768654450587977E+08, 2.216154833283799E+09, 2.582835082167712E+09,
2460833.500000000, A.D. 2025-Jun-07 00:00:00.0000, 5.730221482685937E+08, 2.216019528952268E+09, 2.584456871641956E+09,
2460840.500000000, A.D. 2025-Jun-14 00:00:00.0000, 5.691781676802377E+08, 2.215881540556137E+09, 2.586075607191095E+09,
2460847.500000000, A.D. 2025-Jun-21 00:00:00.0000, 5.653335077200396E+08, 2.215740870102204E+09, 2.587691288301226E+09,
2460854.500000000, A.D. 2025-Jun-28 00:00:00.0000, 5.614881718281610E+08, 2.215597518938749E+09, 2.589303914533091E+09,
2460861.500000000, A.D. 2025-Jul-05 00:00:00.0000, 5.576421633651567E+08, 2.215451487518033E+09, 2.590913485418312E+09,
2460868.500000000, A.D. 2025-Jul-12 00:00:00.0000, 5.537954860140414E+08, 2.215302775691356E+09, 2.592520000444553E+09,
2460875.500000000, A.D. 2025-Jul-19 00:00:00.0000, 5.499481438674525E+08, 2.215151382961746E+09, 2.594123459065252E+09,
2460882.500000000, A.D. 2025-Jul-26 00:00:00.0000, 5.461001414098382E+08, 2.214997308637855E+09, 2.595723860710170E+09,
2460889.500000000, A.D. 2025-Aug-02 00:00:00.0000, 5.422514834600604E+08, 2.214840551910866E+09, 2.597321204792603E+09,
2460896.500000000, A.D. 2025-Aug-09 00:00:00.0000, 5.384021750978268E+08, 2.214681111840035E+09, 2.598915490710090E+09,
2460903.500000000, A.D. 2025-Aug-16 00:00:00.0000, 5.345522216508994E+08, 2.214518987183867E+09, 2.600506717826532E+09,
2460910.500000000, A.D. 2025-Aug-23 00:00:00.0000, 5.307016290356986E+08, 2.214354176093732E+09, 2.602094885410480E+09,
2460917.500000000, A.D. 2025-Aug-30 00:00:00.0000, 5.268504047802500E+08, 2.214186676384160E+09, 2.603679992557958E+09,
2460924.500000000, A.D. 2025-Sep-06 00:00:00.0000, 5.229985583113356E+08, 2.214016487380314E+09, 2.605262038311928E+09,
2460931.500000000, A.D. 2025-Sep-13 00:00:00.0000, 5.191460988350987E+08, 2.213843610859890E+09, 2.606841021928972E+09,
2460938.500000000, A.D. 2025-Sep-20 00:00:00.0000, 5.152930340843369E+08, 2.213668049445201E+09, 2.608416942858827E+09,
2460945.500000000, A.D. 2025-Sep-27 00:00:00.0000, 5.114393709910259E+08, 2.213489805557146E+09, 2.609989800594187E+09,
2460952.500000000, A.D. 2025-Oct-04 00:00:00.0000, 5.075851162673851E+08, 2.213308881470501E+09, 2.611559594619998E+09,
2460959.500000000, A.D. 2025-Oct-11 00:00:00.0000, 5.037302765218292E+08, 2.213125279527685E+09, 2.613126324419536E+09,
2460966.500000000, A.D. 2025-Oct-18 00:00:00.0000, 4.998748581934763E+08, 2.212939002236872E+09, 2.614689989488897E+09,
2460973.500000000, A.D. 2025-Oct-25 00:00:00.0000, 4.960188674447356E+08, 2.212750052265765E+09, 2.616250589347928E+09,
2460980.500000000, A.D. 2025-Nov-01 00:00:00.0000, 4.921623100513845E+08, 2.212558432346946E+09, 2.617808123545180E+09,
2460987.500000000, A.D. 2025-Nov-08 00:00:00.0000, 4.883051913246459E+08, 2.212364145063808E+09, 2.619362591650974E+09,
2460994.500000000, A.D. 2025-Nov-15 00:00:00.0000, 4.844475162130715E+08, 2.212167192459022E+09, 2.620913993220038E+09,
2461001.500000000, A.D. 2025-Nov-22 00:00:00.0000, 4.805892899868663E+08, 2.211967575686061E+09, 2.622462327704559E+09,
2461008.500000000, A.D. 2025-Nov-29 00:00:00.0000, 4.767305193513933E+08, 2.211765295839242E+09, 2.624007594424232E+09,
2461015.500000000, A.D. 2025-Dec-06 00:00:00.0000, 4.728712117123742E+08, 2.211560355826650E+09, 2.625549792790901E+09,
2461022.500000000, A.D. 2025-Dec-13 00:00:00.0000, 4.690113730264104E+08, 2.211352759915979E+09, 2.627088922472375E+09,
2461029.500000000, A.D. 2025-Dec-20 00:00:00.0000, 4.651510077299744E+08, 2.211142511976812E+09, 2.628624983258584E+09,
2461036.500000000, A.D. 2025-Dec-27 00:00:00.0000, 4.612901196730524E+08, 2.210929615011046E+09, 2.630157974940202E+09,
2461043.500000000, A.D. 2026-Jan-03 00:00:00.0000, 4.574287125982170E+08, 2.210714071356482E+09, 2.631687897283298E+09,
2461050.500000000, A.D. 2026-Jan-10 00:00:00.0000, 4.535667902748905E+08, 2.210495882885346E+09, 2.633214750034462E+09,
2461057.500000000, A.D. 2026-Jan-17 00:00:00.0000, 4.497043565213598E+08, 2.210275051106993E+09, 2.634738532927694E+09,
2461064.500000000, A.D. 2026-Jan-24 00:00:00.0000, 4.458414151924871E+08, 2.210051577198336E+09, 2.636259245687819E+09,
2461071.500000000, A.D. 2026-Jan-31 00:00:00.0000, 4.419779701565685E+08, 2.209825461955545E+09, 2.637776888027804E+09,
2461078.500000000, A.D. 2026-Feb-07 00:00:00.0000, 4.381140253228585E+08, 2.209596705610571E+09, 2.639291459629741E+09,
2461085.500000000, A.D. 2026-Feb-14 00:00:00.0000, 4.342495849728174E+08, 2.209365307498087E+09, 2.640802960085155E+09,
2461092.500000000, A.D. 2026-Feb-21 00:00:00.0000, 4.303846547826442E+08, 2.209131266150694E+09, 2.642311388806359E+09,
2461099.500000000, A.D. 2026-Feb-28 00:00:00.0000, 4.265192424522542E+08, 2.208894580976443E+09, 2.643816745102682E+09,
2461106.500000000, A.D. 2026-Mar-07 00:00:00.0000, 4.226533558821543E+08, 2.208655253569088E+09, 2.645319028451146E+09,
2461113.500000000, A.D. 2026-Mar-14 00:00:00.0000, 4.187870016739233E+08, 2.208413286318467E+09, 2.646818238516421E+09,
2461120.500000000, A.D. 2026-Mar-21 00:00:00.0000, 4.149201857371822E+08, 2.208168681219068E+09, 2.648314374993471E+09,
2461127.500000000, A.D. 2026-Mar-28 00:00:00.0000, 4.110529139936563E+08, 2.207921439905488E+09, 2.649807437541401E+09,
2461134.500000000, A.D. 2026-Apr-04 00:00:00.0000, 4.071851925746055E+08, 2.207671563949104E+09, 2.651297425785087E+09,
2461141.500000000, A.D. 2026-Apr-11 00:00:00.0000, 4.033170277855565E+08, 2.207419055056034E+09, 2.652784339330261E+09,
2461148.500000000, A.D. 2026-Apr-18 00:00:00.0000, 3.994484259977317E+08, 2.207163915159629E+09, 2.654268177777073E+09,
2461155.500000000, A.D. 2026-Apr-25 00:00:00.0000, 3.955793935122406E+08, 2.206906146422240E+09, 2.655748940729346E+09,
2461162.500000000, A.D. 2026-May-02 00:00:00.0000, 3.917099364280627E+08, 2.206645751116594E+09, 2.657226627794475E+09,
2461169.500000000, A.D. 2026-May-09 00:00:00.0000, 3.878400606388036E+08, 2.206382731320580E+09, 2.658701238557281E+09,
2461176.500000000, A.D. 2026-May-16 00:00:00.0000, 3.839697723365450E+08, 2.206117088563797E+09, 2.660172772504618E+09,
2461183.500000000, A.D. 2026-May-23 00:00:00.0000, 3.800990790749149E+08, 2.205848824448284E+09, 2.661641228979578E+09,
2461190.500000000, A.D. 2026-May-30 00:00:00.0000, 3.762279893131260E+08, 2.205577942563021E+09, 2.663106607382043E+09,
2461197.500000000, A.D. 2026-Jun-06 00:00:00.0000, 3.723565101237924E+08, 2.205304448418652E+09, 2.664568907377129E+09,
2461204.500000000, A.D. 2026-Jun-13 00:00:00.0000, 3.684846467305301E+08, 2.205028347601401E+09, 2.666028128791358E+09,
2461211.500000000, A.D. 2026-Jun-20 00:00:00.0000, 3.646124033743296E+08, 2.204749645072339E+09, 2.667484271481494E+09,
2461218.500000000, A.D. 2026-Jun-27 00:00:00.0000, 3.607397838103423E+08, 2.204468345272145E+09, 2.668937335303758E+09,
2461225.500000000, A.D. 2026-Jul-04 00:00:00.0000, 3.568667914349630E+08, 2.204184452256530E+09, 2.670387320119836E+09,
2461232.500000000, A.D. 2026-Jul-11 00:00:00.0000, 3.529934292971313E+08, 2.203897969730448E+09, 2.671834225805347E+09,
2461239.500000000, A.D. 2026-Jul-18 00:00:00.0000, 3.491197000865482E+08, 2.203608901006900E+09, 2.673278052254093E+09,
2461246.500000000, A.D. 2026-Jul-25 00:00:00.0000, 3.452456061232396E+08, 2.203317248893107E+09, 2.674718799375842E+09,
2461253.500000000, A.D. 2026-Aug-01 00:00:00.0000, 3.413711493965316E+08, 2.203023015456018E+09, 2.676156467079116E+09,
2461260.500000000, A.D. 2026-Aug-08 00:00:00.0000, 3.374963318682789E+08, 2.202726201631332E+09, 2.677591055216186E+09,
2461267.500000000, A.D. 2026-Aug-15 00:00:00.0000, 3.336211564553121E+08, 2.202426807126570E+09, 2.679022563488925E+09,
2461274.500000000, A.D. 2026-Aug-22 00:00:00.0000, 3.297456279299518E+08, 2.202124831839619E+09, 2.680450991485071E+09,
2461281.500000000, A.D. 2026-Aug-29 00:00:00.0000, 3.258697514493780E+08, 2.201820277420188E+09, 2.681876338942642E+09,
2461288.500000000, A.D. 2026-Sep-05 00:00:00.0000, 3.219935308473806E+08, 2.201513146106198E+09, 2.683298605812407E+09,
2461295.500000000, A.D. 2026-Sep-12 00:00:00.0000, 3.181169691433182E+08, 2.201203439330902E+09, 2.684717792097253E+09,
2461302.500000000, A.D. 2026-Sep-19 00:00:00.0000, 3.142400693944486E+08, 2.200891157644907E+09, 2.686133897766474E+09,
2461309.500000000, A.D. 2026-Sep-26 00:00:00.0000, 3.103628350329323E+08, 2.200576301020218E+09, 2.687546922747565E+09,
2461316.500000000, A.D. 2026-Oct-03 00:00:00.0000, 3.064852699360681E+08, 2.200258869085590E+09, 2.688956866935889E+09,
$$EOE